COMMENT,ORIGINATOR,NORAD_CAT_ID,OBJECT_NAME,OBJECT_TYPE,CLASSIFICATION_TYPE,INTLDES,EPOCH,EPOCH_MICROSECONDS,MEAN_MOTION,ECCENTRICITY,INCLINATION,RA_OF_ASC_NODE,ARG_OF_PERICENTER,MEAN_ANOMALY,EPHEMERIS_TYPE,ELEMENT_SET_NO,REV_AT_EPOCH,BSTAR,MEAN_MOTION_DOT,MEAN_MOTION_DDOT,FILE,TLE_LINE0,TLE_LINE1,TLE_LINE2,OBJECT_ID,OBJECT_NUMBER,SEMIMAJOR_AXIS,PERIOD,APOGEE,PERIGEE
"GENERATED VIA SPACETRACK.ORG API","JSPOC","21130","COSMOS 2135","PAYLOAD","U","91013A","2016-01-11 15:15:13","285152","13.78475017","0.006711","82.8261","221.9562","66.8935","326.0952","0","999","25113","2.7904e-05","4.4e-07","0","1979502","0 COSMOS 2135","1 21130U 91013A   16011.63557043 +.00000044 +00000-0 +27904-4 0  9997","2 21130 082.8261 221.9562 0067110 066.8935 326.0952 13.78475017251137","1991-013A","21130","7347.437","104.463","1018.611","919.993"
"GENERATED VIA SPACETRACK.ORG API","JSPOC","37829","COSMOS 2474 (GLONASS)","PAYLOAD","U","11055A","2016-01-11 15:15:26","286624","2.13101943","0.0005554","64.5105","201.8104","248.8781","153.5798","0","999","3328","0","9.6e-07","0","1979502","0 COSMOS 2474 (GLONASS)","1 37829U 11055A   16011.63572091 +.00000096 +00000-0 +00000-0 0  9998","2 37829 064.5105 201.8104 0005554 248.8781 153.5798 02.13101943033283","2011-055A","37829","25508.028","675.732","19144.061","19115.726"
"GENERATED VIA SPACETRACK.ORG API","JSPOC","26487","EUROBIRD 4A(EUTELSAT W1)","PAYLOAD","U","00052A","2016-01-11 15:15:44","440992","0.98178365","0.0015337","3.5808","71.7543","197.0097","139.2769","0","999","5594","0","9e-08","0","1979069","0 EUROBIRD 4A(EUTELSAT W1)","1 26487U 00052A   16011.63593103  .00000009  00000-0  00000+0 0  9991","2 26487   3.5808  71.7543 0015337 197.0097 139.2769  0.98178365 55949","2000-052A","26487","42761.996","1466.718","36449.445","36318.277"
"GENERATED VIA SPACETRACK.ORG API","JSPOC","23765","AFRICASAT 1 (MEASAT 1)","PAYLOAD","U","96002B","2016-01-11 15:15:44","453088","0.99059457","0.0006785","6.7347","53.783","219.277","134.9503","0","999","7310","0","6.9e-07","0","1979116","0 AFRICASAT 1 (MEASAT 1)","1 23765U 96002B   16011.63593117  .00000069  00000-0  00000+0 0  9998","2 23765   6.7347  53.7830 0006785 219.2770 134.9503  0.99059457 73106","1996-002B","23765","42508.052","1453.672","36158.759","36101.076"
"GENERATED VIA SPACETRACK.ORG API","JSPOC","27451","IRIDIUM 98","PAYLOAD","U","02031B","2016-01-11 15:15:45","185760","14.34219364","0.0002162","86.3951","240.6178","89.0188","286.7768","0","999","71640","6.0269e-05","1.89e-06","0","1979040","0 IRIDIUM 98","1 27451U 02031B   16011.63593965  .00000189  00000-0  60269-4 0  9995","2 27451  86.3951 240.6178 0002162  89.0188 286.7768 14.34219364716405","2002-031B","27451","7155.798","100.403","779.210","776.116"
"GENERATED VIA SPACETRACK.ORG API","JSPOC","8894","COSMOS 830","PAYLOAD","U","76054F","2016-01-11 15:15:45","570240","12.46209665","0.0016522","74.0013","89.8532","236.8183","293.3284","0","999","80027","0.00013236","3e-08","0","1979502","0 COSMOS 830","1  8894U 76054F   16011.63594410 +.00000003 +00000-0 +13236-3 0  9993","2  8894 074.0013 089.8532 0016522 236.8183 293.3284 12.46209665800277","1976-054F","8894","7858.526","115.550","1493.374","1467.407"
"GENERATED VIA SPACETRACK.ORG API","JSPOC","16482","SATCOM K1","PAYLOAD","U","86003B","2016-01-11 15:16:34","744800","0.99550262","0.0004233","14.4889","24.9784","203.6798","169.3182","0","999","8651","0","9.1e-07","0","1979153","0 SATCOM K1","1 16482U 86003B   16011.63651325  .00000091  00000-0  00000+0 0  9997","2 16482  14.4889  24.9784 0004233 203.6798 169.3182  0.99550262 86516","1986-003B","16482","42368.221","1446.505","36008.021","35972.152"
"GENERATED VIA SPACETRACK.ORG API","JSPOC","9510","SL-8 R/B","ROCKET BODY","U","76108B","2016-01-11 15:16:41","402784","13.77515441","0.002553","82.9357","54.3335","205.3102","154.6807","0","999","96956","2.9584e-05","4.5e-07","0","1979502","0 SL-8 R/B","1  9510U 76108B   16011.63659031 +.00000045 +00000-0 +29584-4 0  9990","2  9510 082.9357 054.3335 0025530 205.3102 154.6807 13.77515441969566","1976-108B","9510","7350.849","104.536","991.481","953.947"
"GENERATED VIA SPACETRACK.ORG API","JSPOC","25900","SL-12 R/B(2)","ROCKET BODY","U","99047E","2016-01-11 15:17:00","877344","1.00110955","0.0098756","13.0072","32.2189","319.0152","44.2971","0","999","5983","0","7.9e-07","0","1979502","0 SL-12 R/B(2)","1 25900U 99047E   16011.63681571 +.00000079 +00000-0 +00000-0 0  9997","2 25900 013.0072 032.2189 0098756 319.0152 044.2971 01.00110955059836","1999-047E","25900","42209.878","1438.404","36248.591","35414.895"
"GENERATED VIA SPACETRACK.ORG API","JSPOC","9061","COSMOS 846","PAYLOAD","U","76078A","2016-01-11 15:17:18","946176","13.76369975","0.0042085","82.9305","14.2117","29.9908","108.0144","0","999","25115","5.3084e-06","2.1e-07","0","1979502","0 COSMOS 846","1  9061U 76078A   16011.63702484 +.00000021 +00000-0 +53084-5 0  9995","2  9061 082.9305 014.2117 0042085 029.9908 108.0144 13.76369975251155","1976-078A","9061","7354.927","104.623","1007.745","945.839"
"GENERATED VIA SPACETRACK.ORG API","JSPOC","20473","STTW-4","PAYLOAD","U","90011A","2016-01-11 15:17:23","833824","1.00230795","0.0002158","14.7266","20.7864","112.8499","294.7953","0","999","9484","0","-2.22e-06","0","1979502","0 STTW-4","1 20473U 90011A   16011.63708141 -.00000222 +00000-0 +00000-0 0  9993","2 20473 014.7266 020.7864 0002158 112.8499 294.7953 01.00230795094842","1990-011A","20473","42176.226","1436.684","35807.193","35788.990"
"GENERATED VIA SPACETRACK.ORG API","JSPOC","1433","DELTA 1 R/B","ROCKET BODY","U","65051B","2016-01-11 15:17:41","46432","14.56244384","0.004401","98.6059","45.1062","140.0546","220.3903","0","999","66061","6.7439e-05","2.51e-06","0","1979099","0 DELTA 1 R/B","1 01433U 65051B   16011.63728063  .00000251  00000-0  67439-4 0  9993","2 01433  98.6059  45.1062 0044010 140.0546 220.3903 14.56244384660616","1965-051B","1433","7083.463","98.884","736.502","674.154"
"GENERATED VIA SPACETRACK.ORG API","JSPOC","29495","OPTUS D1","PAYLOAD","U","06043B","2016-01-11 15:17:53","983104","1.00271149","0.0002814","0.0186","1.6854","287.6518","210.7025","0","999","3394","0","-1.1e-06","0","1979095","0 OPTUS D1","1 29495U 06043B   16011.63743036 -.00000110  00000-0  00000+0 0  9995","2 29495   0.0186   1.6854 0002814 287.6518 210.7025  1.00271149 33943","2006-043B","29495","42164.910","1436.106","35798.640","35774.910"
"GENERATED VIA SPACETRACK.ORG API","JSPOC","12328","SL-8 R/B","ROCKET BODY","U","81022J","2016-01-11 15:18:06","206976","12.23731525","0.0149375","74.0232","74.7179","60.2682","92.3499","0","999","55691","-0.00023469","-4e-07","0","1979502","0 SL-8 R/B","1 12328U 81022J   16011.63757184 -.00000040 +00000-0 -23469-3 0  9992","2 12328 074.0232 074.7179 0149375 060.2682 092.3499 12.23731525556917","1981-022J","12328","7954.466","117.672","1695.151","1457.511"
"GENERATED VIA SPACETRACK.ORG API","JSPOC","20596","COSMOS 2076","PAYLOAD","U","90040A","2016-01-11 15:18:46","453824","2.00584252","0.572763","68.5694","33.1109","185.008","175.1766","0","999","18835","0","-4.58e-06","0","1979502","0 COSMOS 2076","1 20596U 90040A   16011.63803766 -.00000458 +00000-0 +00000-0 0  9991","2 20596 068.5694 033.1109 5727630 185.0080 175.1766 02.00584252188357","1990-040A","20596","26558.525","717.902","35392.130","4968.649"
"GENERATED VIA SPACETRACK.ORG API","JSPOC","22624","SL-12 R/B(2)","ROCKET BODY","U","93013D","2016-01-11 15:18:46","453824","0.98013218","0.0012688","15.2177","21.2568","28.4845","344.7541","0","999","8157","0","-4.1e-07","0","1979502","0 SL-12 R/B(2)","1 22624U 93013D   16011.63803766 -.00000041 +00000-0 +00000-0 0  9996","2 22624 015.2177 021.2568 0012688 028.4845 344.7541 00.98013218081572","1993-013D","22624","42810.017","1469.189","36486.200","36377.565"
"GENERATED VIA SPACETRACK.ORG API","JSPOC","23651","NSTAR A","PAYLOAD","U","95044A","2016-01-11 15:19:12","704736","0.99125782","0.0014873","8.5302","48.1316","262.4991","83.4176","0","999","7414","0","7.8e-07","0","1979502","0 NSTAR A","1 23651U 95044A   16011.63834149 +.00000078 +00000-0 +00000-0 0  9991","2 23651 008.5302 048.1316 0014873 262.4991 083.4176 00.99125782074144","1995-044A","23651","42489.089","1452.699","36174.148","36047.760"
"GENERATED VIA SPACETRACK.ORG API","JSPOC","35497","ARIANE 5 R/B","ROCKET BODY","U","09035B","2016-01-11 15:19:13","93536","4.14092392","0.6000897","5.728","155.4434","171.5486","206.7142","0","999","7873","0.00083899","0.00062753","6.8908","1979090","0 ARIANE 5 R/B","1 35497U 09035B   16011.63834599  .00062753  68908-6  83899-3 0  9991","2 35497   5.7280 155.4434 6000897 171.5486 206.7142  4.14092392 78731","2009-035B","35497","16380.871","347.748","19832.728","172.744"
"GENERATED VIA SPACETRACK.ORG API","JSPOC","26113","IMAGE","PAYLOAD","U","00017A","2016-01-11 15:19:28","375104","1.68640736","0.7601386","94.0296","245.3676","8.5093","359.5021","0","999","9726","-0.020949","-2.73e-06","0","1979502","0 IMAGE","1 26113U 00017A   16011.63852286 -.00000273 +00000-0 -20949-1 0  9999","2 26113 094.0296 245.3676 7601386 008.5093 359.5021 01.68640736097264","2000-017A","26113","29814.453","853.886","46099.434","773.201"
"GENERATED VIA SPACETRACK.ORG API","JSPOC","36593","BREEZE-M R/B","ROCKET BODY","U","10025B","2016-01-11 15:19:56","88768","2.0742088","0.5641958","18.6989","276.3343","216.2892","14.1665","0","999","4247","0","-2.82e-06","0","1979070","0 BREEZE-M R/B","1 36593U 10025B   16011.63884362 -.00000282  00000-0  00000+0 0  9995","2 36593  18.6989 276.3343 5641958 216.2892  14.1665  2.07420880 42476","2010-025B","36593","25971.688","694.240","34246.671","4940.436"
